[{"OBJECT_NAME":"STARLINK-2404","OBJECT_ID":"2021-027B","EPOCH":"2026-03-09T10:54:24.902496","MEAN_MOTION":15.30185413,"ECCENTRICITY":0.00012125,"INCLINATION":53.1593,"RA_OF_ASC_NODE":156.0452,"ARG_OF_PERICENTER":104.0491,"MEAN_ANOMALY":256.0644,"EPHEMERIS_TYPE":0,"CLASSIFICATION_TYPE":"U","NORAD_CAT_ID":48093,"ELEMENT_SET_NO":999,"REV_AT_EPOCH":27262,"BSTAR":0.00011922013,"MEAN_MOTION_DOT":3.172e-5,"MEAN_MOTION_DDOT":0},{"OBJECT_NAME":"HAWK-11B","OBJECT_ID":"2024-247C","EPOCH":"2026-03-09T10:44:06.809856","MEAN_MOTION":15.2884707,"ECCENTRICITY":0.00046902,"INCLINATION":45.0161,"RA_OF_ASC_NODE":115.761,"ARG_OF_PERICENTER":333.0326,"MEAN_ANOMALY":27.0314,"EPHEMERIS_TYPE":0,"CLASSIFICATION_TYPE":"U","NORAD_CAT_ID":62379,"ELEMENT_SET_NO":999,"REV_AT_EPOCH":6773,"BSTAR":0.00032841927,"MEAN_MOTION_DOT":9.093e-5,"MEAN_MOTION_DDOT":0}]
